CCSDS_OEM_VERS = 1.0
CREATION_DATE  = 2017-01-20T15:15:27
ORIGINATOR     = GMAT USER

META_START
OBJECT_NAME          = DefaultSC
OBJECT_ID            = SatId
CENTER_NAME          = Earth
REF_FRAME            = EME2000
TIME_SYSTEM          = UTC
START_TIME           = 2000-01-01T11:59:28.000
USEABLE_START_TIME   = 2000-01-01T11:59:28.000
USEABLE_STOP_TIME    = 2000-01-01T15:19:28.000
STOP_TIME            = 2000-01-01T15:19:28.000
INTERPOLATION        = Lagrange
INTERPOLATION_DEGREE = 7 
META_STOP


                                                                                   

2000-01-01T17:47:20.649  -6.515860703249480e+003   3.003725409033734e+003  -8.230826117801173e+002  -2.735160767310930e+000  -6.748125043477738e+000  -1.396087236379944e+000
2000-01-01T17:49:01.044  -6.755120064357761e+003   2.311390294321209e+003  -9.585790802676437e+002  -2.026029728068343e+000  -7.032084213188189e+000  -1.300632164377613e+000
2000-01-01T17:50:41.052  -6.921254098347532e+003   1.597024657002883e+003  -1.083280116420314e+003  -1.292496285356264e+000  -7.241658688404255e+000  -1.190827047325081e+000
2000-01-01T17:52:20.666  -7.012771881697239e+003   8.684057565657163e+002  -1.195884088675753e+003  -5.423562356699699e-001  -7.374330918775370e+000  -1.067803375709806e+000
2000-01-01T17:53:59.883  -7.029006608042064e+003   1.334050513151162e+002  -1.295231572151541e+003   2.163564371081114e-001  -7.428406210880930e+000  -9.328457924357021e-001
2000-01-01T17:55:38.710  -6.970108580131087e+003  -6.001186690812219e+002  -1.380318108174823e+003   9.754761074796203e-001  -7.403042748090710e+000  -7.873760391868473e-001
2000-01-01T17:57:17.151  -6.837027620479017e+003  -1.324381251857042e+003  -1.450299092334054e+003   1.726772573808469e+000  -7.298268396321125e+000  -6.329425511243959e-001
2000-01-01T17:58:55.218  -6.631493880854250e+003  -2.031754365015903e+003  -1.504496873005810e+003   2.462044501891761e+000  -7.114995600664682e+000  -4.712048530284279e-001
2000-01-01T18:00:32.926  -6.355980562375405e+003  -2.714866855598191e+003  -1.542407097897146e+003   3.173240212340264e+000  -6.855015540377447e+000  -3.039101020127325e-001
2000-01-01T18:02:10.292  -6.013673174000870e+003  -3.366649756189872e+003  -1.563698892430034e+003   3.852525487188132e+000  -6.520992573555723e+000  -1.328795784102724e-001
2000-01-01T18:03:47.339  -5.608417904788056e+003  -3.980424324017532e+003  -1.568216755961012e+003   4.492400696091234e+000  -6.116433645900636e+000   4.001735530248666e-002
2000-01-01T18:05:24.092  -5.144671667051155e+003  -4.549956897660983e+003  -1.555978412930969e+003   5.085786825001187e+000  -5.645651954625753e+000   2.128842365277944e-001
2000-01-01T18:07:00.578  -4.627454723188708e+003  -5.069504916350878e+003  -1.527171979816617e+003   5.626104368496565e+000  -5.113726602962406e+000   3.838176846351870e-001
2000-01-01T18:08:36.828  -4.062295093913685e+003  -5.533867744540214e+003  -1.482152211649057e+003   6.107357997343729e+000  -4.526446988527587e+000   5.509306765063073e-001
2000-01-01T18:10:12.875  -3.455153435819016e+003  -5.938440679137421e+003  -1.421433495818595e+003   6.524223742706590e+000  -3.890229478828484e+000   7.123799330256233e-001
2000-01-01T18:11:48.753  -2.812382580263305e+003  -6.279232730000451e+003  -1.345684580461960e+003   6.872096519170809e+000  -3.212063245438689e+000   8.663820592543088e-001
2000-01-01T18:13:24.498  -2.140653194663235e+003  -6.552907032011677e+003  -1.255719910950596e+003   7.147157779257109e+000  -2.499414706723472e+000   1.011238880709527e+000
2000-01-01T18:15:00.149  -1.446879350874528e+003  -6.756806127631796e+003  -1.152488955587483e+003   7.346422711154999e+000  -1.760125955769509e+000   1.145359729295724e+000
2000-01-01T18:16:35.743  -7.381802916019105e+002  -6.888960496227350e+003  -1.037070105845286e+003   7.467765240066064e+000  -1.002347351553823e+000   1.267275088838363e+000
2000-01-01T18:18:11.321  -2.177813849360957e+001  -6.948110534463992e+003  -9.106543311149231e+002   7.509949723656220e+000  -2.343986573166533e-001   1.375660835108696e+000
2000-01-01T18:19:46.921   6.950230324852495e+002  -6.933705656239016e+003  -7.745410667068368e+002   7.472634053343720e+000   5.352848420217482e-001   1.469345976521864e+000
2000-01-01T18:21:22.582   1.404925514098679e+003  -6.845913675428238e+003  -6.301228182461464e+002   7.356375290705607e+000   1.298278786479015e+000   1.547330345351793e+000
2000-01-01T18:22:58.342   2.100703756603693e+003  -6.685616742944910e+003  -4.788722200988429e+002   7.162615004037983e+000   2.046271353289519e+000   1.608795207067646e+000
2000-01-01T18:24:34.238   2.775262683131551e+003  -6.454404153901504e+003  -3.223300793230438e+002   6.893655369034804e+000   2.771154602739000e+000   1.653110768527088e+000
2000-01-01T18:26:10.309   3.421714465377905e+003  -6.154553874378960e+003  -1.620884853605367e+002   6.552617138929026e+000   3.465132174545707e+000   1.679842395748874e+000
2000-01-01T18:27:46.588   4.033416997644333e+003  -5.789022901196237e+003   2.177542005070343e-001   6.143403698024532e+000   4.120781257080614e+000   1.688751968483992e+000
2000-01-01T18:29:23.109   4.604047190240677e+003  -5.361422183594705e+003   1.629282156251065e+002   5.670643938731614e+000   4.731146538040698e+000   1.679799419495851e+000
2000-01-01T18:30:59.902   5.127660351487792e+003  -4.875988565934125e+003   3.243717424736585e+002   5.139630115282147e+000   5.289813066956961e+000   1.653140552224624e+000
2000-01-01T18:32:36.994   5.598742590527115e+003  -4.337557944346672e+003   4.828798601683920e+002   4.556256180476234e+000   5.790965162578349e+000   1.609123107854098e+000
2000-01-01T18:34:14.410   6.012270266055644e+003  -3.751527893811700e+003   6.368028808013878e+002   3.926945024424104e+000   6.229446238064485e+000   1.548280855862031e+000
2000-01-01T18:35:52.172   6.363773630755189e+003  -3.123799046605834e+003   7.845295604081675e+002   3.258555009632130e+000   6.600816496830984e+000   1.471323509236235e+000
2000-01-01T18:37:30.297   6.649373961455208e+003  -2.460742414818389e+003   9.244983978378750e+002   2.558317670178994e+000   6.901376470248392e+000   1.379128020687822e+000
2000-01-01T18:39:08.800   6.865834714046217e+003  -1.769143916576523e+003   1.055214529096405e+003   1.833754967626120e+000   7.128200175191084e+000   1.272727296369880e+000
2000-01-01T18:39:28.000   6.899669817211228e+003  -1.631939611648578e+003   1.079437909473935e+003   1.690682807828744e+000   7.163550660670659e+000   1.250484059371140e+000
